1 43478U 18047C   23259.21848606  .00000530  00000-0  15159-3 0  9994
2 43478  86.4531 148.5159 0002310  82.3132 277.8331 14.43277031280185
1 43479U 18047D   23259.22585554  .00000402  00000-0  13658-3 0  9996
2 43479  86.4007 148.3725 0001889  84.9021 275.2390 14.34212107278442
1 43480U 18047E   23259.23220206 -.00000140  00000-0 -56921-4 0  9991
2 43480  86.4009 148.3575 0002158  85.4360 274.7083 14.34218956278442
1 43481U 18047F   23259.23854301  .00000075  00000-0  19830-4 0  9994
2 43481  86.4013 148.4207 0002379  81.0929 279.0536 14.34214810278434
1 43482U 18047G   23259.21214973  .00000506  00000-0  14431-3 0  9998
2 43482  86.4534 148.4219 0002208  81.7776 278.3675 14.43273854280177
1 43569U 18061A   23259.53322732  .00000353  00000-0  11911-3 0  9998
2 43569  86.3940 116.6833 0002065  92.4305 267.7128 14.34215996269377
1 43570U 18061B   23259.55859190  .00000345  00000-0  11596-3 0  9995
2 43570  86.3939 116.6367 0002014  79.0128 281.1294 14.34219108269404
1 43571U 18061C   23259.52688162  .00000346  00000-0  11637-3 0  9999
2 43571  86.3940 116.6591 0001684  84.3802 275.7586 14.34220031269361
1 43572U 18061D   23259.55225841  .00000358  00000-0  12065-3 0  9993
2 43572  86.3941 116.6758 0001637  85.0840 275.0542 14.34219165269390
1 43573U 18061E   23259.58396880  .00000353  00000-0  11909-3 0  9990
2 43573  86.3935 116.5810 0002331  82.2903 277.8557 14.34217666269360
1 43574U 18061F   23259.56493457  .00000233  00000-0  76209-4 0  9999
2 43574  86.3941 116.6736 0002091  94.0279 266.1156 14.34218675269419
1 43575U 18061G   23259.54590941  .00000389  00000-0  13175-3 0  9998
2 43575  86.3940 116.6279 0002020  88.3265 271.8162 14.34218911269383
1 43576U 18061H   23259.59030602  .00000028  00000-0  30931-5 0  9998
2 43576  86.3942 116.6154 0002044  79.1807 280.9619 14.34217992269380
1 43577U 18061J   23259.57127784  .00000047  00000-0  96373-5 0  9998
2 43577  86.3939 116.6483 0001853  85.6528 274.4879 14.34216881269428
1 43578U 18061K   23259.53956919  .00000334  00000-0  11205-3 0  9993
2 43578  86.3939 116.6194 0002145  87.2192 272.9249 14.34217457269387
1 43922U 19002A   23259.53904712  .00000332  00000-0  11165-3 0  9999
2 43922  86.3951  53.4477 0001991  96.8117 263.3305 14.34222613244994
1 43923U 19002B   23259.46034636  .00000593  00000-0  90085-4 0  9999
2 43923  86.6080  53.5149 0002180  89.6196 270.5271 14.72242073251428
1 43924U 19002C   23259.46295714  .00000291  00000-0  96828-4 0  9992
2 43924  86.3953  53.5284 0002058  93.6181 266.5250 14.34220060244961
1 43925U 19002D   23259.52004361  .00000210  00000-0  67770-4 0  9991
2 43925  86.3949  53.4345 0002126  94.9732 265.1707 14.34219315244958
1 43926U 19002E   23259.58865698  .00000122  00000-0  33271-4 0  9997
2 43926  86.4168  85.0416 0005127  67.2031 292.9708 14.38603743245790
1 43927U 19002F   23259.51368487  .00000209  00000-0  67540-4 0  9997
2 43927  86.3951  53.4419 0002052  96.0302 264.1128 14.34214260244960
1 43928U 19002G   23259.45410919  .00001769  00000-0  27670-3 0  9990
2 43928  86.1516  42.1880 0002198  91.5002 268.6466 14.72227457251417
1 43929U 19002H   23259.49466162  .00000054  00000-0  12127-4 0  9994
2 43929  86.3960  53.6450 0001932  94.7076 265.4341 14.34217329244957
1 43930U 19002J   23259.46650262  .00001630  00000-0  25474-3 0  9998
2 43930  86.6081  53.5173 0002313  87.8132 272.3350 14.72239152251435
1 43931U 19002K   23259.48832141  .00001220  00000-0  42848-3 0  9998
2 43931  86.3949  53.4660 0001944  91.6936 268.4482 14.34217588244958
1 44995U 97051ABM 21139.14053534  .00020596  00000-0  15176-2 0  9998
2 44995  86.3261 275.6534 0015103 202.2733 282.3331 15.03133242497017
1 46435U 97051ABN 23259.04018207  .00015065  00000-0  69091-2 0  9991
2 46435  86.2911 176.0550 0303672 340.1562  30.9409 13.99631876479229
1 46436U 97051ABP 21308.53834278  .00043449  00000-0  64544-2 0  9998
2 46436  86.3139 225.9623 0023889 353.7113 181.7360 14.74601076517743
1 46437U 97051ABQ 23020.10315378  .00942735  00000-0  24158-1 0  9992
2 46437  86.4926 159.2276 0022394 259.3253 100.5478 15.36459320610462
1 46734U 97051ABR 23259.58022286  .00003061  00000-0  10822-2 0  9995
2 46734  86.2731 359.3492 0048588 131.4505 291.0893 14.33701584512556
1 46804U 97051ABS 22075.17402168  .00007870  00000-0  29257-2 0  9998
2 46804  86.1650 224.6247 0115546 132.9018  40.4879 14.28351983495973
1 46961U 97051ABT 23041.99946266  .00153243  00000-0  20433-1 0  9990
2 46961  86.3856 133.5998 0045977 235.0107 124.6793 14.78035045 95207
1 46962U 97051ABU 23233.26968334  .00015846  00000-0  31658-2 0  9992
2 46962  86.3196  59.9044 0078182 338.6789 196.9617 14.59860236606918
1 46963U 97051ABV 23058.71403870  .00082494  00000-0  17535-1 0  9997
2 46963  86.2894  53.8578 0046080 140.1497 220.3111 14.57916406568289
1 46964U 97051ABW 23258.75688654  .00031604  00000-0  34516-2 0  9995
2 46964  86.2461 269.8030 0026595 329.1507  30.8154 14.87488123619519
1 46965U 97051ABX 23257.21164038  .00004282  00000-0  10818-2 0  9992
2 46965  86.3446 341.4491 0022469 206.0764 184.6172 14.50685944503336
1 46966U 97051ABY 23079.66215551  .00040061  00000-0  12080-1 0  9998
2 46966  86.4226 223.0217 0112691  71.1480 290.1898 14.38648404572024
1 46967U 97051ABZ 23120.68932245  .00071675  00000-0  46308-2 0  9990
2 46967  86.2238 275.1287 0017856 157.9005 202.3005 15.07780883603029
1 46968U 97051ACA 22073.25558646  .00239191  00000-0  70768-2 0  9995
2 46968  86.2560  75.4094 0016816  97.5994 262.7167 15.33813898312473
1 46969U 97051ACB 21353.13937548  .00065856  00000-0  40531-2 0  9995
2 46969  86.2227 147.6354 0012533 318.6924  41.3364 15.09658516417896
1 46970U 97051ACC 22118.59237359  .00148444  00000-0  10574-1 0  9998
2 46970  86.1999  72.2070 0026318 107.6890  14.9601 15.03613404453649
1 46971U 97051ACD 23258.53220087  .00008490  00000-0  18044-2 0  9996
2 46971  86.3573 343.8756 0012161 236.6188 180.6146 14.58938781521550
1 46972U 97051ACE 23256.13921475  .00003628  00000-0  10500-2 0  9997
2 46972  86.3908  31.0430 0008410 333.3350 150.5072 14.44270817496870
1 46973U 97051ACF 23259.46837299  .00025439  00000-0  73391-2 0  9998
2 46973  86.3726 159.6605 0147650  82.9171 278.8790 14.38313447482100
1 46974U 97051ACG 23258.80381915  .00004890  00000-0  20559-2 0  9991
2 46974  86.3058  95.2132 0129339 326.6459  32.6626 14.21261692457854
1 46975U 97051ACH 23109.09774213  .00163615  00000-0  13865-1 0  9997
2 46975  86.3823  53.2661 0017978  32.7406 338.3206 14.97021274455387
1 46976U 97051ACJ 22339.76686521  .00007188  00000-0  33290-2 0  9997
2 46976  86.4562 335.8614 0181124  75.0341  46.4415 14.12390697460165
1 46977U 97051ACK 23019.23954967  .00020837  00000-0  49676-2 0  9999
2 46977  86.1726  10.6160 0037374  12.1803 348.0297 14.53207203435549
1 46978U 97051ACL 23114.82412623  .00051930  00000-0  64900-2 0  9994
2 46978  86.2292 316.1707 0032898  79.6495 292.2081 14.81697102593459
1 46979U 97051ACM 23256.70206047  .00017303  00000-0  50386-2 0  9999
2 46979  86.3531  52.3280 0064235 153.0404 207.4159 14.42896633234351
1 46980U 97051ACN 22216.19652418  .00002016  00000-0  50086-3 0  9999
2 46980  86.3848 192.2850 0010496  25.7503 334.4222 14.51340114409956
1 46981U 97051ACP 22265.59664413  .00008226  00000-0  24108-2 0  9990
2 46981  86.3128 210.4963 0110111  70.4223  55.0665 14.40281876429087
1 46982U 97051ACQ 23173.26300081  .00046654  00000-0  42578-2 0  9990
2 46982  86.3732   2.6663 0007814 220.6170  70.0607 14.94842421349927
1 46983U 97051ACR 23198.37003194  .00421175  00000-0  95302-2 0  9993
2 46983  86.3485 346.1960 0012075 254.9169 105.0750 15.41466922493460
1 56726U 23068S   23259.54419418  .00000165  00000-0  42863-4 0  9991
2 56726  86.8570  93.8910 0001530  50.2839 309.8497 14.43571555 17512
1 56727U 23068T   23259.55985195  .00000676  00000-0  85459-4 0  9998
2 56727  86.1925  85.7437 0002092  96.9093 263.2366 14.80218047 17756
1 56728U 23068U   23259.55441829  .00000675  00000-0  85314-4 0  9999
2 56728  86.1931  85.8277 0002404  89.8582 270.2915 14.80217831 17756
1 56729U 23068V   23259.54866349  .00000644  00000-0  81372-4 0  9993
2 56729  86.5726  90.2845 0002463  94.7944 265.3559 14.80208798 17757
1 56730U 23068W   23259.54326839  .00000627  00000-0  79126-4 0  9995
2 56730  86.6735  90.9637 0002351  95.3849 264.7640 14.80208880 17759
1 57002U 97082T   23259.10131152  .00102249  00000-0  14840-1 0  9991
2 57002  86.4003  30.1593 0019202 155.7562 204.4565 14.75315392467994
1 57003U 97082U   23259.04588336  .00018703  00000-0  54777-2 0  9990
2 57003  86.2865  12.0733 0095842 165.4413 194.9584 14.41155136428915
